[
{"name": "Maggio Group", "street_address": "686 Dell Crossing Apt. 304", "street_address_2": "Apt. 272", "city": "Port Ellyn", "state": "NewJersey", "zipcode": "84301", "phone_number": "(292)658-9806x07990", "website": "hoeger.com", "description": "empower vertical markets"},
{"name": "Sauer-O'Keefe", "street_address": "7553 Windler Mews Suite 579", "street_address_2": "Apt. 856", "city": "Shaunnaland", "state": "Virginia", "zipcode": "11826", "phone_number": "1-288-729-4880x743", "website": "beatty.com", "description": "orchestrate bricks-and-clicks experiences"},
{"name": "Gulgowski, Macejkovic and Watsica", "street_address": "4899 Mann Canyon", "street_address_2": "Suite 759", "city": "Torpton", "state": "Maine", "zipcode": "59013", "phone_number": "(732)602-2541", "website": "bergstrom.com", "description": "strategize world-class methodologies"},
{"name": "Reilly-Bernhard", "street_address": "50965 Nelia Shoal", "street_address_2": "Apt. 504", "city": "South Ralphtown", "state": "Minnesota", "zipcode": "11963", "phone_number": "380-075-3616", "website": "bergnaum.com", "description": "brand cross-media networks"},
{"name": "Welch LLC", "street_address": "5324 Lowe Springs Apt. 645", "street_address_2": "Suite 769", "city": "Boyerburgh", "state": "Georgia", "zipcode": "83500", "phone_number": "191-906-6377", "website": "leannonbernier.com", "description": "incubate vertical applications"},
{"name": "Lowe LLC", "street_address": "86913 Lowe Wells", "street_address_2": "Apt. 688", "city": "Brynnmouth", "state": "Georgia", "zipcode": "51107", "phone_number": "+78(7)4988251519", "website": "yost.com", "description": "cultivate global bandwidth"},
{"name": "Ward-Leffler", "street_address": "1777 Alvia Ville", "street_address_2": "Suite 486", "city": "Schmidtburgh", "state": "Tennessee", "zipcode": "34209", "phone_number": "413.605.7755x23164", "website": "schuster.org", "description": "facilitate synergistic metrics"},
{"name": "Smith-Pouros", "street_address": "035 Deshawn Via Apt. 258", "street_address_2": "Apt. 848", "city": "Adamsville", "state": "Illinois", "zipcode": "30958", "phone_number": "527.772.6907", "website": "jewess.com", "description": "disintermediate compelling synergies"},
{"name": "Murray Group", "street_address": "0077 Erdman Parks Apt. 472", "street_address_2": "Apt. 359", "city": "East Jayvion", "state": "Wyoming", "zipcode": "25431", "phone_number": "903.506.1466", "website": "schuster.info", "description": "transition intuitive info-mediaries"},
{"name": "Friesen, Grimes and Davis", "street_address": "43352 Cambria Green", "street_address_2": "Apt. 929", "city": "Tremblayberg", "state": "WestVirginia", "zipcode": "20819", "phone_number": "662.928.7788", "website": "turcotte.com", "description": "repurpose cross-media synergies"},
{"name": "Robel-Rau", "street_address": "486 Ples Mountains Suite 573", "street_address_2": "Apt. 751", "city": "New Francisport", "state": "NewHampshire", "zipcode": "50100", "phone_number": "613-281-4638x1591", "website": "walker.com", "description": "monetize extensible partnerships"},
{"name": "Kiehn-Schmitt", "street_address": "3485 Horace Points Suite 693", "street_address_2": "Suite 035", "city": "Port Lovinafort", "state": "Virginia", "zipcode": "20905", "phone_number": "+45(4)1584526513", "website": "aufderhar.com", "description": "harness customized applications"},
{"name": "Armstrong PLC", "street_address": "54853 Raynard Parkways Apt. 766", "street_address_2": "Suite 529", "city": "Lake Severtport", "state": "Virginia", "zipcode": "73151", "phone_number": "1-821-108-8873", "website": "rowehoppe.com", "description": "seize proactive platforms"},
{"name": "Goldner-Jacobson", "street_address": "627 Vollie Crossroad", "street_address_2": "Suite 292", "city": "Wunschmouth", "state": "Massachusetts", "zipcode": "93053", "phone_number": "+03(3)6564737968", "website": "johnston.biz", "description": "envisioneer global interfaces"},
{"name": "Kertzmann, Osinski and Tromp", "street_address": "25686 Lowe Run", "street_address_2": "Apt. 405", "city": "Robertston", "state": "Minnesota", "zipcode": "47295", "phone_number": "+47(8)7473482806", "website": "yostjakubowski.com", "description": "unleash mission-critical interfaces"},
{"name": "Connelly, Gulgowski and Gulgowski", "street_address": "4647 Treutel Island", "street_address_2": "Suite 638", "city": "South Emmalinemouth", "state": "Arkansas", "zipcode": "50758", "phone_number": "176-846-7772", "website": "walterabbott.com", "description": "monetize dynamic interfaces"},
{"name": "Jones-DuBuque", "street_address": "636 Gulgowski Center Apt. 270", "street_address_2": "Suite 591", "city": "New Avieview", "state": "Wisconsin", "zipcode": "11471", "phone_number": "336-746-1041", "website": "schadenhahn.com", "description": "whiteboard vertical web-readiness"},
{"name": "Legros-Williamson", "street_address": "68880 Blas Parks", "street_address_2": "Suite 711", "city": "Bodeland", "state": "NorthDakota", "zipcode": "81866", "phone_number": "500.391.6758", "website": "reinger.com", "description": "expedite synergistic infrastructures"},
{"name": "Denesik, Dietrich and Crooks", "street_address": "46418 Effertz Turnpike Suite 344", "street_address_2": "Suite 892", "city": "Lake Cristoferport", "state": "Wisconsin", "zipcode": "33030", "phone_number": "(652)270-4453", "website": "vandervort.com", "description": "enable plug-and-play users"},
{"name": "Bartoletti, Rath and Hyatt", "street_address": "90367 Jakubowski Wells Suite 611", "street_address_2": "Apt. 962", "city": "Pearleneland", "state": "Virginia", "zipcode": "22488", "phone_number": "07697242083", "website": "reynoldskonopelski.com", "description": "integrate value-added ROI"},
{"name": "Williamson, Blick and Bogan", "street_address": "6327 Gusta Lane", "street_address_2": "Suite 241", "city": "New Shanemouth", "state": "NewHampshire", "zipcode": "05390", "phone_number": "1-708-204-5838", "website": "collier.com", "description": "evolve cross-platform interfaces"},
{"name": "Koch-Keeling", "street_address": "6895 Oland Summit", "street_address_2": "Suite 640", "city": "Zboncakborough", "state": "Utah", "zipcode": "42922", "phone_number": "255.081.2479x77245", "website": "mann.org", "description": "incentivize visionary networks"},
{"name": "Grimes and Sons", "street_address": "55377 Spencer Squares", "street_address_2": "Apt. 765", "city": "Port Johnnie", "state": "Pennsylvania", "zipcode": "66500", "phone_number": "1-641-614-8064", "website": "spencer.com", "description": "maximize turn-key paradigms"},
{"name": "Cassin, Dickinson and Davis", "street_address": "68108 Valorie Cliff Suite 426", "street_address_2": "Apt. 723", "city": "South Lindbergh", "state": "Louisiana", "zipcode": "02959", "phone_number": "+70(4)7381180003", "website": "funk.net", "description": "target vertical models"},
{"name": "Kreiger-Beahan", "street_address": "29587 Les Trace Apt. 372", "street_address_2": "Suite 035", "city": "West Orrenmouth", "state": "SouthDakota", "zipcode": "74316", "phone_number": "(852)957-0897x157", "website": "bogisich.org", "description": "syndicate cutting-edge models"},
{"name": "Schultz PLC", "street_address": "7611 Gibson Stream", "street_address_2": "Suite 000", "city": "East Joretta", "state": "Minnesota", "zipcode": "27400", "phone_number": "354-588-7953x666", "website": "goodwin.com", "description": "implement leading-edge channels"},
{"name": "Nolan-Hickle", "street_address": "100 Paris Lakes Apt. 113", "street_address_2": "Suite 450", "city": "Morissettemouth", "state": "WestVirginia", "zipcode": "93109", "phone_number": "699.213.6795x768", "website": "swaniawski.com", "description": "e-enable seamless technologies"},
{"name": "Kerluke and Sons", "street_address": "124 Smith Fall", "street_address_2": "Suite 229", "city": "Howellfort", "state": "Wyoming", "zipcode": "89200", "phone_number": "553.723.4448x358", "website": "hauck.biz", "description": "integrate granular deliverables"},
{"name": "Zulauf PLC", "street_address": "893 Deliah Forest", "street_address_2": "Suite 345", "city": "Bruenville", "state": "WestVirginia", "zipcode": "15384", "phone_number": "481-706-2380x5953", "website": "wolffhansen.org", "description": "enhance end-to-end schemas"},
{"name": "Gleason-Schultz", "street_address": "1346 Becker Views", "street_address_2": "Suite 587", "city": "South Jo", "state": "SouthDakota", "zipcode": "59598", "phone_number": "(296)289-3657x43728", "website": "rath.org", "description": "engage out-of-the-box systems"},
{"name": "Smitham, Gislason and Volkman", "street_address": "974 Leslie Fords Suite 769", "street_address_2": "Suite 245", "city": "Conmouth", "state": "Idaho", "zipcode": "54601", "phone_number": "1-075-606-1118", "website": "toy.net", "description": "orchestrate cutting-edge paradigms"},
{"name": "Cartwright-Klein", "street_address": "0886 Jensen Burgs", "street_address_2": "Apt. 577", "city": "Jerdemouth", "state": "Wisconsin", "zipcode": "57677", "phone_number": "1-872-904-4745", "website": "gibson.com", "description": "enhance visionary mindshare"},
{"name": "Dietrich, VonRueden and Gottlieb", "street_address": "66809 Daniela Ranch Suite 854", "street_address_2": "Apt. 299", "city": "Manningshire", "state": "SouthDakota", "zipcode": "93814", "phone_number": "457.533.5126", "website": "mertz.com", "description": "facilitate bleeding-edge infrastructures"},
{"name": "Stark PLC", "street_address": "9089 Skiles Street", "street_address_2": "Apt. 171", "city": "New Amiahborough", "state": "Hawaii", "zipcode": "94655", "phone_number": "726-996-7557x3333", "website": "considine.biz", "description": "optimize impactful supply-chains"},
{"name": "Strosin-Wuckert", "street_address": "043 Feest Rest Apt. 459", "street_address_2": "Apt. 952", "city": "Lake Newtonfort", "state": "NewMexico", "zipcode": "76897", "phone_number": "+49(3)3075316561", "website": "heidenreich.com", "description": "deploy customized bandwidth"},
{"name": "Moore, Von and Gleason", "street_address": "2436 Jones Road Suite 817", "street_address_2": "Apt. 211", "city": "East Jaquelineport", "state": "Wyoming", "zipcode": "57761", "phone_number": "1-392-518-9252", "website": "grahamupton.biz", "description": "facilitate global technologies"},
{"name": "Strosin, Altenwerth and Olson", "street_address": "013 Bayer Valley", "street_address_2": "Suite 838", "city": "Khalilton", "state": "Alaska", "zipcode": "91044", "phone_number": "1-498-628-0162x33479", "website": "mclaughlinmills.com", "description": "brand real-time methodologies"},
{"name": "Lueilwitz, Macejkovic and Balistreri", "street_address": "170 Kunze Street Apt. 175", "street_address_2": "Suite 187", "city": "Januarystad", "state": "Missouri", "zipcode": "31347", "phone_number": "02575633755", "website": "denesikfranecki.net", "description": "reinvent efficient architectures"},
{"name": "Fritsch-Hackett", "street_address": "94568 Deontae Via", "street_address_2": "Suite 942", "city": "Harrietown", "state": "Washington", "zipcode": "26851", "phone_number": "1-677-868-9177x04299", "website": "rau.com", "description": "incentivize virtual deliverables"},
{"name": "Deckow PLC", "street_address": "3550 Hunter Drive", "street_address_2": "Apt. 600", "city": "South Margeburgh", "state": "Oklahoma", "zipcode": "60362", "phone_number": "842.775.6089x505", "website": "lindgrenleannon.com", "description": "deploy compelling markets"},
{"name": "Cassin Group", "street_address": "73625 Hane Trail Apt. 788", "street_address_2": "Suite 733", "city": "East Milissa", "state": "NewYork", "zipcode": "96272", "phone_number": "+13(5)5486626447", "website": "hoeger.com", "description": "unleash virtual e-markets"},
{"name": "Blick, Kuphal and Conn", "street_address": "11814 Gorczany Tunnel", "street_address_2": "Suite 843", "city": "Wernerhaven", "state": "Montana", "zipcode": "81331", "phone_number": "1-795-532-5660x26882", "website": "herzog.com", "description": "reinvent 24/7 interfaces"},
{"name": "Trantow-Sanford", "street_address": "6719 Gulgowski Port Suite 702", "street_address_2": "Suite 638", "city": "Douglasport", "state": "Delaware", "zipcode": "89300", "phone_number": "(815)961-7996x770", "website": "pacochalarkin.biz", "description": "transition intuitive e-business"},
{"name": "Zemlak and Sons", "street_address": "163 Dooley Rue Apt. 813", "street_address_2": "Apt. 104", "city": "Leannonhaven", "state": "Texas", "zipcode": "56557", "phone_number": "313.090.7737x959", "website": "danielkirlin.info", "description": "envisioneer frictionless architectures"},
{"name": "Quitzon, Miller and Terry", "street_address": "257 Jeremy Turnpike Suite 331", "street_address_2": "Suite 757", "city": "Kubside", "state": "Maine", "zipcode": "99232", "phone_number": "+88(9)4362869353", "website": "rutherford.com", "description": "productize cross-platform deliverables"},
{"name": "McCullough, Koelpin and Rippin", "street_address": "741 Cambria Crossroad Apt. 943", "street_address_2": "Apt. 200", "city": "South Elsebury", "state": "Massachusetts", "zipcode": "07604", "phone_number": "1-009-480-1601", "website": "west.biz", "description": "reinvent vertical relationships"},
{"name": "Kessler-Daugherty", "street_address": "2040 Balistreri Springs Apt. 329", "street_address_2": "Apt. 689", "city": "Staffordtown", "state": "Louisiana", "zipcode": "99153", "phone_number": "(662)573-9140", "website": "beckermcglynn.com", "description": "exploit cross-media portals"},
{"name": "Mitchell-Lehner", "street_address": "58804 Jenkins Estates Apt. 099", "street_address_2": "Suite 197", "city": "Port Camryn", "state": "Connecticut", "zipcode": "41991", "phone_number": "1-111-450-5550", "website": "haagmills.com", "description": "iterate best-of-breed info-mediaries"},
{"name": "Hickle, Deckow and Ritchie", "street_address": "7344 Stroman Prairie Apt. 780", "street_address_2": "Apt. 714", "city": "Lake Fairymouth", "state": "Oregon", "zipcode": "78139", "phone_number": "241-102-9018", "website": "murrayabernathy.com", "description": "syndicate value-added technologies"},
{"name": "Schultz, Fisher and Gibson", "street_address": "25154 Hegmann Villages Suite 152", "street_address_2": "Apt. 190", "city": "East Nikoleberg", "state": "Arizona", "zipcode": "96293", "phone_number": "720.871.8413x897", "website": "jenkinsstehr.com", "description": "mesh strategic eyeballs"},
{"name": "Purdy-Goldner", "street_address": "6487 Keifer Groves", "street_address_2": "Apt. 071", "city": "South Caitlynn", "state": "NewJersey", "zipcode": "46566", "phone_number": "490.474.9451", "website": "borer.org", "description": "embrace vertical niches"},
{"name": "Lakin LLC", "street_address": "5991 Weimann Port", "street_address_2": "Suite 489", "city": "Franeckichester", "state": "RhodeIsland", "zipcode": "78954", "phone_number": "1-571-135-0548x63949", "website": "oberbrunner.net", "description": "leverage virtual deliverables"},
{"name": "Ondricka, Ritchie and Mertz", "street_address": "8595 Hills Shore", "street_address_2": "Apt. 004", "city": "Derlmouth", "state": "Minnesota", "zipcode": "08166", "phone_number": "662-633-7918", "website": "funk.com", "description": "innovate impactful content"},
{"name": "Wunsch-Lindgren", "street_address": "1234 Stokes Meadow Apt. 226", "street_address_2": "Apt. 668", "city": "Rogahnview", "state": "Missouri", "zipcode": "04224", "phone_number": "+05(7)6529348217", "website": "medhursthomenick.org", "description": "synthesize innovative e-business"},
{"name": "Johns-Schneider", "street_address": "14523 Reinger Place Apt. 772", "street_address_2": "Apt. 760", "city": "Mahlonborough", "state": "SouthDakota", "zipcode": "98434", "phone_number": "776.673.1013x8064", "website": "botsford.com", "description": "grow B2C portals"},
{"name": "Weber-Runte", "street_address": "361 Mante Motorway Apt. 885", "street_address_2": "Suite 131", "city": "Denverland", "state": "Michigan", "zipcode": "34470", "phone_number": "565.373.7178x293", "website": "wehner.info", "description": "iterate efficient architectures"},
{"name": "Bogan-Ziemann", "street_address": "100 Blanda Tunnel", "street_address_2": "Suite 024", "city": "West Gene", "state": "Illinois", "zipcode": "73905", "phone_number": "462.299.3056", "website": "wehner.biz", "description": "monetize granular metrics"},
{"name": "Fahey Ltd", "street_address": "22370 Kshlerin Parkway Suite 614", "street_address_2": "Apt. 676", "city": "East Belle", "state": "Delaware", "zipcode": "36125", "phone_number": "875-556-0245", "website": "mcglynn.info", "description": "incubate end-to-end schemas"},
{"name": "Murray-Simonis", "street_address": "4033 Fadel Greens", "street_address_2": "Suite 777", "city": "Kautzerstad", "state": "Iowa", "zipcode": "27944", "phone_number": "1-060-259-7633", "website": "feeney.com", "description": "exploit one-to-one eyeballs"},
{"name": "Okuneva PLC", "street_address": "988 Padberg Key", "street_address_2": "Apt. 136", "city": "Trentonbury", "state": "Alaska", "zipcode": "92137", "phone_number": "+15(2)1885433882", "website": "gibson.info", "description": "cultivate vertical e-tailers"},
{"name": "Kessler-Padberg", "street_address": "67347 Dereon Skyway Suite 986", "street_address_2": "Suite 079", "city": "South Ardenfort", "state": "Nebraska", "zipcode": "91881", "phone_number": "278.305.8438x6366", "website": "pfeffer.com", "description": "enhance seamless platforms"},
{"name": "Nikolaus Group", "street_address": "0757 Kulas Heights", "street_address_2": "Suite 581", "city": "Rueckerbury", "state": "Wisconsin", "zipcode": "61454", "phone_number": "331-879-1110x10786", "website": "jones.org", "description": "utilize 24/7 technologies"},
{"name": "Daniel-Krajcik", "street_address": "7516 Micaela Green", "street_address_2": "Apt. 577", "city": "North Angustown", "state": "Indiana", "zipcode": "98360", "phone_number": "1-761-392-4987x3582", "website": "breitenberg.org", "description": "reinvent visionary applications"},
{"name": "Denesik, Waters and Thompson", "street_address": "500 Rempel Station Apt. 966", "street_address_2": "Suite 386", "city": "Lednershire", "state": "Arkansas", "zipcode": "27711", "phone_number": "690-839-2090x72976", "website": "bradtkedeckow.org", "description": "transition frictionless convergence"},
{"name": "Franecki Inc", "street_address": "31276 Watsica Mountain Suite 636", "street_address_2": "Apt. 458", "city": "South Hedyfurt", "state": "California", "zipcode": "13676", "phone_number": "00414143870", "website": "bartolettibruen.org", "description": "enhance cutting-edge schemas"},
{"name": "Denesik, Krajcik and Kiehn", "street_address": "365 Mosciski Knolls Apt. 435", "street_address_2": "Apt. 785", "city": "Lake Alphonsinefort", "state": "Mississippi", "zipcode": "26092", "phone_number": "1-112-825-8217", "website": "fritsch.com", "description": "optimize leading-edge partnerships"},
{"name": "Fritsch, Rice and Kulas", "street_address": "33793 Martell Islands", "street_address_2": "Suite 075", "city": "North Cleo", "state": "California", "zipcode": "65186", "phone_number": "1-808-408-8840x910", "website": "harber.net", "description": "synthesize global markets"},
{"name": "Funk, Weber and Bins", "street_address": "3465 Lars Mill", "street_address_2": "Suite 203", "city": "Mardellfurt", "state": "Connecticut", "zipcode": "29156", "phone_number": "028-885-9824", "website": "hamill.com", "description": "incubate robust vortals"},
{"name": "Stark-Hegmann", "street_address": "176 Keebler Valley Suite 518", "street_address_2": "Apt. 762", "city": "West Brandon", "state": "Massachusetts", "zipcode": "60046", "phone_number": "394.523.2829", "website": "franecki.org", "description": "productize transparent info-mediaries"},
{"name": "Lebsack Group", "street_address": "8888 Osinski Tunnel", "street_address_2": "Apt. 359", "city": "Monahanport", "state": "Wyoming", "zipcode": "14075", "phone_number": "200.730.3837x38004", "website": "hermistondooley.com", "description": "productize cutting-edge convergence"},
{"name": "Walsh, Lindgren and Daniel", "street_address": "90903 Bechtelar Cape", "street_address_2": "Apt. 282", "city": "North Caydenport", "state": "Connecticut", "zipcode": "94431", "phone_number": "1-388-155-8714x771", "website": "reichel.com", "description": "incentivize world-class content"},
{"name": "Fahey-Mann", "street_address": "25487 Schaden Fields Suite 771", "street_address_2": "Apt. 602", "city": "South Margo", "state": "NewJersey", "zipcode": "90179", "phone_number": "(517)689-7491x6000", "website": "kreiger.info", "description": "synergize 24/365 systems"},
{"name": "Gaylord-Little", "street_address": "0843 Boyle Ways Apt. 454", "street_address_2": "Apt. 445", "city": "Port Dejahshire", "state": "Delaware", "zipcode": "19893", "phone_number": "075.991.4556x930", "website": "koch.com", "description": "synergize enterprise experiences"},
{"name": "Hackett LLC", "street_address": "248 Dietrich Junction", "street_address_2": "Apt. 875", "city": "East Cheryll", "state": "WestVirginia", "zipcode": "42523", "phone_number": "(666)824-8963x0159", "website": "hayes.com", "description": "benchmark sexy solutions"},
{"name": "Hayes-Corwin", "street_address": "53564 Runte Walks", "street_address_2": "Suite 110", "city": "North Kayleen", "state": "Missouri", "zipcode": "75246", "phone_number": "(624)128-8923", "website": "franecki.com", "description": "engineer compelling convergence"},
{"name": "Berge, Rath and Leuschke", "street_address": "2888 Kohler Union Suite 582", "street_address_2": "Apt. 327", "city": "New Alverbury", "state": "Montana", "zipcode": "34396", "phone_number": "(810)099-9315x793", "website": "senger.com", "description": "monetize back-end synergies"},
{"name": "Gerhold-DuBuque", "street_address": "505 Jayden Light", "street_address_2": "Suite 638", "city": "Watersland", "state": "Indiana", "zipcode": "45314", "phone_number": "+85(5)2089668258", "website": "metzwuckert.com", "description": "deploy B2B e-services"},
{"name": "Frami, Ferry and Rosenbaum", "street_address": "2161 Keifer Shore", "street_address_2": "Suite 091", "city": "Bernardside", "state": "Minnesota", "zipcode": "95977", "phone_number": "296.706.9136", "website": "baumbachmitchell.org", "description": "utilize one-to-one vortals"},
{"name": "Boyer, Kuhn and Bartell", "street_address": "284 Wyman View", "street_address_2": "Apt. 046", "city": "Cillaberg", "state": "Georgia", "zipcode": "88043", "phone_number": "1-901-819-4072", "website": "klein.com", "description": "leverage robust portals"},
{"name": "Koch-McCullough", "street_address": "326 Hintz Throughway Suite 881", "street_address_2": "Apt. 114", "city": "Lurlineville", "state": "Connecticut", "zipcode": "43297", "phone_number": "094-510-0683x13465", "website": "tremblay.com", "description": "repurpose revolutionary relationships"},
{"name": "Casper-Johns", "street_address": "009 Treutel Wall", "street_address_2": "Suite 325", "city": "New Romelloville", "state": "Tennessee", "zipcode": "01807", "phone_number": "+22(8)6086765343", "website": "blanda.org", "description": "facilitate intuitive schemas"},
{"name": "Kemmer Inc", "street_address": "138 Windler Bridge Suite 497", "street_address_2": "Apt. 813", "city": "Port Bertville", "state": "Wyoming", "zipcode": "91199", "phone_number": "(165)683-1414", "website": "kutchtorphy.info", "description": "redefine leading-edge schemas"},
{"name": "Mann and Sons", "street_address": "4488 Wyman Lock Suite 478", "street_address_2": "Suite 310", "city": "North Hudson", "state": "Hawaii", "zipcode": "74743", "phone_number": "534.481.5839", "website": "reynoldslarson.com", "description": "transform bleeding-edge methodologies"},
{"name": "Orn, Hilpert and Frami", "street_address": "9881 Brigid Plains Apt. 700", "street_address_2": "Suite 613", "city": "Nikolausstad", "state": "Connecticut", "zipcode": "26486", "phone_number": "1-788-631-1112x219", "website": "lynch.com", "description": "expedite innovative deliverables"},
{"name": "Labadie PLC", "street_address": "13513 Kieth Ridge Suite 709", "street_address_2": "Suite 036", "city": "Sherwoodport", "state": "Delaware", "zipcode": "92120", "phone_number": "04711515348", "website": "stoltenberg.biz", "description": "productize world-class platforms"},
{"name": "Smith, Adams and Medhurst", "street_address": "7699 Dione Spring", "street_address_2": "Apt. 217", "city": "Lake Aspenbury", "state": "Illinois", "zipcode": "22232", "phone_number": "(496)274-3521x70710", "website": "denesik.com", "description": "enhance dynamic e-markets"},
{"name": "McKenzie-Gutkowski", "street_address": "741 Deane Lights", "street_address_2": "Suite 903", "city": "Wisozkfurt", "state": "RhodeIsland", "zipcode": "06147", "phone_number": "+96(8)7289778770", "website": "feest.net", "description": "enhance killer deliverables"},
{"name": "Considine PLC", "street_address": "36145 Landan Lights", "street_address_2": "Suite 687", "city": "West Pascalview", "state": "Minnesota", "zipcode": "68405", "phone_number": "660-225-5733x134", "website": "nitzscheheller.org", "description": "maximize end-to-end convergence"},
{"name": "Effertz Group", "street_address": "245 Swaniawski Camp", "street_address_2": "Suite 723", "city": "Emileton", "state": "Utah", "zipcode": "93020", "phone_number": "(403)650-7998x8051", "website": "mcclurewillms.com", "description": "e-enable scalable ROI"},
{"name": "Bosco Group", "street_address": "681 Toy Circles Suite 585", "street_address_2": "Suite 779", "city": "Port Sharday", "state": "Maryland", "zipcode": "25226", "phone_number": "1-185-412-3057x636", "website": "gleason.com", "description": "generate collaborative content"},
{"name": "Hessel, Toy and Boehm", "street_address": "219 Vennie Springs", "street_address_2": "Apt. 537", "city": "New Arronview", "state": "Mississippi", "zipcode": "70955", "phone_number": "(777)188-8385", "website": "macejkovic.com", "description": "facilitate web-enabled e-commerce"},
{"name": "Swift Inc", "street_address": "9025 Crawford Springs Suite 253", "street_address_2": "Apt. 724", "city": "South Ronny", "state": "Montana", "zipcode": "10979", "phone_number": "811.939.6364", "website": "ritchie.com", "description": "innovate end-to-end networks"},
{"name": "Luettgen Group", "street_address": "97899 Leffler Fort Suite 871", "street_address_2": "Apt. 869", "city": "Nicolasland", "state": "Connecticut", "zipcode": "44424", "phone_number": "287.846.8509", "website": "funk.com", "description": "cultivate frictionless eyeballs"},
{"name": "Stokes PLC", "street_address": "543 Barbra Stravenue", "street_address_2": "Apt. 986", "city": "Ronaldoville", "state": "Arkansas", "zipcode": "20155", "phone_number": "1-626-096-2033x83983", "website": "franecki.org", "description": "implement rich technologies"},
{"name": "Zieme LLC", "street_address": "75657 Wisozk Locks", "street_address_2": "Apt. 011", "city": "New Elonzo", "state": "Vermont", "zipcode": "58239", "phone_number": "1-123-415-9546", "website": "gaylordmiller.org", "description": "evolve user-centric supply-chains"},
{"name": "Trantow, O'Connell and Rowe", "street_address": "76504 Howell Prairie Apt. 884", "street_address_2": "Suite 768", "city": "Wuckerthaven", "state": "Maryland", "zipcode": "12491", "phone_number": "(251)378-3326", "website": "hilpert.com", "description": "syndicate magnetic ROI"},
{"name": "Koch-Erdman", "street_address": "9014 Lakin Heights", "street_address_2": "Apt. 607", "city": "Port Gusta", "state": "Nevada", "zipcode": "30281", "phone_number": "+41(2)5294964718", "website": "crona.com", "description": "strategize ubiquitous markets"},
{"name": "Hegmann PLC", "street_address": "910 Keena Crossroad", "street_address_2": "Apt. 917", "city": "Lehnerville", "state": "Colorado", "zipcode": "80659", "phone_number": "(484)540-7780", "website": "barrowsbrakus.com", "description": "re-intermediate strategic solutions"},
{"name": "Miller Inc", "street_address": "699 Walter Pass Suite 415", "street_address_2": "Apt. 057", "city": "South Norbertoview", "state": "Massachusetts", "zipcode": "12005", "phone_number": "578-656-5914", "website": "wilkinsonwillms.com", "description": "engineer interactive systems"},
{"name": "Roberts and Sons", "street_address": "548 Asia Spring Apt. 678", "street_address_2": "Apt. 252", "city": "Waldemarmouth", "state": "Hawaii", "zipcode": "64325", "phone_number": "04875049966", "website": "cruickshankromaguera.com", "description": "repurpose dynamic e-business"}
]